<?xml version="1.0" encoding="UTF-8"?>
<kml xmlns="http://www.opengis.net/kml/2.2">
  <Document>
    <name>2026 Gorge Rallysprint</name>
    <description/>
    <Style id="icon-1899-DB4436-nodesc-normal">
      <IconStyle>
        <color>ff3644db</color>
        <scale>1</scale>
        <Icon>
          <href>https://www.gstatic.com/mapspro/images/stock/503-wht-blank_maps.png</href>
        </Icon>
        <hotSpot x="32" xunits="pixels" y="64" yunits="insetPixels"/>
      </IconStyle>
      <LabelStyle>
        <scale>0</scale>
      </LabelStyle>
      <BalloonStyle>
        <text><![CDATA[<h3>$[name]</h3>]]></text>
      </BalloonStyle>
    </Style>
    <Style id="icon-1899-DB4436-nodesc-highlight">
      <IconStyle>
        <color>ff3644db</color>
        <scale>1</scale>
        <Icon>
          <href>https://www.gstatic.com/mapspro/images/stock/503-wht-blank_maps.png</href>
        </Icon>
        <hotSpot x="32" xunits="pixels" y="64" yunits="insetPixels"/>
      </IconStyle>
      <LabelStyle>
        <scale>1</scale>
      </LabelStyle>
      <BalloonStyle>
        <text><![CDATA[<h3>$[name]</h3>]]></text>
      </BalloonStyle>
    </Style>
    <StyleMap id="icon-1899-DB4436-nodesc">
      <Pair>
        <key>normal</key>
        <styleUrl>#icon-1899-DB4436-nodesc-normal</styleUrl>
      </Pair>
      <Pair>
        <key>highlight</key>
        <styleUrl>#icon-1899-DB4436-nodesc-highlight</styleUrl>
      </Pair>
    </StyleMap>
    <Style id="line-1267FF-5000-nodesc-normal">
      <LineStyle>
        <color>ffff6712</color>
        <width>5</width>
      </LineStyle>
      <BalloonStyle>
        <text><![CDATA[<h3>$[name]</h3>]]></text>
      </BalloonStyle>
    </Style>
    <Style id="line-1267FF-5000-nodesc-highlight">
      <LineStyle>
        <color>ffff6712</color>
        <width>7.5</width>
      </LineStyle>
      <BalloonStyle>
        <text><![CDATA[<h3>$[name]</h3>]]></text>
      </BalloonStyle>
    </Style>
    <StyleMap id="line-1267FF-5000-nodesc">
      <Pair>
        <key>normal</key>
        <styleUrl>#line-1267FF-5000-nodesc-normal</styleUrl>
      </Pair>
      <Pair>
        <key>highlight</key>
        <styleUrl>#line-1267FF-5000-nodesc-highlight</styleUrl>
      </Pair>
    </StyleMap>
    <Folder>
      <name><![CDATA[SS1 & SS5 Vista 1 & 2]]></name>
      <Placemark>
        <name><![CDATA[SS1 & SS5 Vista 1 & 2]]></name>
        <styleUrl>#line-1267FF-5000-nodesc</styleUrl>
        <LineString>
          <tessellate>1</tessellate>
          <coordinates>
            138.72506,-34.8401,0
            138.72512,-34.84006,0
            138.72513,-34.84005,0
            138.72514,-34.84003,0
            138.72516,-34.84001,0
            138.72517,-34.83999,0
            138.72518,-34.83997,0
            138.72519,-34.83994,0
            138.7252,-34.8399,0
            138.72521,-34.83982,0
            138.72521,-34.83967,0
            138.72523,-34.83924,0
            138.72523,-34.83918,0
            138.72525,-34.83905,0
            138.72527,-34.8389,0
            138.72529,-34.83878,0
            138.72533,-34.83867,0
            138.72536,-34.8386,0
            138.72539,-34.83853,0
            138.72543,-34.83845,0
            138.72547,-34.8384,0
            138.72555,-34.8383,0
            138.72569,-34.83817,0
            138.7265,-34.83746,0
            138.72659,-34.83739,0
            138.72665,-34.83735,0
            138.72672,-34.83732,0
            138.72684,-34.83726,0
            138.72704,-34.83718,0
            138.72719,-34.83714,0
            138.72738,-34.83709,0
            138.72741,-34.83708,0
            138.72744,-34.83708,0
            138.72749,-34.83708,0
            138.72757,-34.83708,0
            138.72771,-34.8371,0
            138.72789,-34.83713,0
            138.72801,-34.83715,0
            138.72808,-34.83716,0
            138.7282,-34.83717,0
            138.72844,-34.83717,0
            138.72862,-34.83718,0
            138.72885,-34.83719,0
            138.72901,-34.83721,0
            138.72924,-34.83725,0
            138.72931,-34.83726,0
            138.72948,-34.83729,0
            138.72965,-34.83733,0
            138.72967,-34.83734,0
            138.7297,-34.83734,0
            138.72972,-34.83735,0
            138.72976,-34.83737,0
            138.7298,-34.83739,0
            138.72984,-34.83741,0
            138.72997,-34.83752,0
            138.73005,-34.83762,0
            138.73015,-34.83777,0
            138.73023,-34.83787,0
            138.73027,-34.83792,0
            138.73033,-34.83798,0
            138.73039,-34.83802,0
            138.73045,-34.83805,0
            138.73056,-34.83812,0
            138.73061,-34.83816,0
            138.73064,-34.83821,0
            138.73066,-34.83824,0
            138.73067,-34.83826,0
            138.73069,-34.83828,0
            138.73069,-34.8383,0
            138.73071,-34.83834,0
            138.73071,-34.83837,0
            138.73072,-34.83846,0
            138.73072,-34.83853,0
            138.73072,-34.83858,0
            138.73067,-34.83896,0
            138.73067,-34.83901,0
            138.73067,-34.83905,0
            138.73068,-34.83907,0
            138.73068,-34.8391,0
            138.7307,-34.83916,0
            138.73071,-34.83918,0
            138.73072,-34.83921,0
            138.73088,-34.83941,0
            138.73095,-34.83952,0
            138.73102,-34.83967,0
            138.73112,-34.83985,0
            138.73125,-34.84004,0
            138.73133,-34.84015,0
            138.7314,-34.84022,0
            138.73142,-34.84025,0
            138.73146,-34.8403,0
            138.73152,-34.8404,0
            138.73154,-34.84046,0
            138.73155,-34.84049,0
            138.73155,-34.8405,0
            138.73155,-34.84052,0
            138.73155,-34.84053,0
            138.73155,-34.84055,0
            138.73155,-34.84058,0
            138.73154,-34.84064,0
            138.73153,-34.84067,0
            138.73152,-34.8407,0
            138.73151,-34.84073,0
            138.7315,-34.84075,0
            138.73148,-34.84081,0
            138.73144,-34.8409,0
            138.73138,-34.84099,0
            138.73129,-34.84115,0
            138.73122,-34.84131,0
            138.7312,-34.84136,0
            138.73118,-34.8414,0
            138.73118,-34.84146,0
            138.73118,-34.8415,0
            138.73128,-34.84197,0
            138.73129,-34.84207,0
            138.73131,-34.8422,0
            138.7313,-34.84251,0
            138.73128,-34.84273,0
            138.73128,-34.84286,0
            138.73129,-34.84294,0
            138.73131,-34.843,0
            138.73133,-34.84303,0
            138.73135,-34.84306,0
            138.73138,-34.84308,0
            138.7314,-34.8431,0
            138.73146,-34.84314,0
            138.73154,-34.84317,0
            138.73164,-34.84318,0
            138.73173,-34.84318,0
            138.73187,-34.84316,0
            138.73199,-34.84314,0
            138.73208,-34.84311,0
            138.73215,-34.84307,0
            138.73248,-34.84286,0
            138.73257,-34.84282,0
            138.73266,-34.84279,0
            138.73272,-34.84278,0
            138.7328,-34.84278,0
            138.73287,-34.84278,0
            138.73297,-34.8428,0
            138.73308,-34.84283,0
            138.73323,-34.84285,0
            138.73334,-34.84285,0
            138.73344,-34.84283,0
            138.73353,-34.84281,0
            138.73374,-34.84275,0
            138.73395,-34.84267,0
            138.73405,-34.84263,0
            138.73416,-34.84256,0
            138.73432,-34.84243,0
            138.73464,-34.84215,0
            138.73477,-34.84206,0
            138.73502,-34.84195,0
            138.73518,-34.84187,0
            138.73538,-34.84177,0
            138.73555,-34.84167,0
            138.7356,-34.84164,0
            138.73598,-34.84142,0
            138.73628,-34.84128,0
            138.73632,-34.84126,0
            138.73673,-34.84106,0
            138.73748,-34.84067,0
            138.73799,-34.8404,0
            138.73814,-34.84032,0
            138.73826,-34.84026,0
            138.73836,-34.84022,0
            138.73845,-34.8402,0
            138.73852,-34.84019,0
            138.73854,-34.84018,0
            138.73862,-34.84017,0
            138.73876,-34.84016,0
            138.73894,-34.84013,0
            138.73931,-34.84009,0
            138.73936,-34.84009,0
            138.7394,-34.84009,0
            138.73945,-34.84009,0
            138.73949,-34.84009,0
            138.73954,-34.84009,0
            138.73959,-34.8401,0
            138.73964,-34.8401,0
            138.73969,-34.84011,0
            138.73978,-34.84012,0
            138.73982,-34.84013,0
            138.73988,-34.84014,0
            138.74007,-34.84018,0
            138.74023,-34.84025,0
            138.74037,-34.84033,0
            138.74053,-34.84044,0
            138.74062,-34.84051,0
            138.74069,-34.84057,0
            138.74085,-34.84071,0
            138.74106,-34.84089,0
            138.74112,-34.84094,0
            138.74117,-34.84096,0
            138.74122,-34.84099,0
            138.74125,-34.841,0
            138.74127,-34.84101,0
            138.74134,-34.84103,0
            138.74137,-34.84103,0
            138.74143,-34.84105,0
            138.74149,-34.84105,0
            138.74153,-34.84106,0
            138.74178,-34.84108,0
            138.74193,-34.84108,0
            138.7421,-34.84108,0
            138.74216,-34.84109,0
            138.74221,-34.8411,0
            138.74226,-34.84112,0
            138.74231,-34.84114,0
            138.74235,-34.84115,0
            138.74239,-34.84117,0
            138.74247,-34.8412,0
            138.74251,-34.84121,0
            138.74254,-34.84122,0
            138.74258,-34.84123,0
            138.74261,-34.84123,0
            138.74265,-34.84123,0
            138.7427,-34.84123,0
            138.74275,-34.84122,0
            138.74287,-34.8412,0
            138.74292,-34.8412,0
            138.74294,-34.84119,0
            138.74335,-34.84114,0
            138.74347,-34.84114,0
            138.7436,-34.84113,0
            138.74383,-34.84113,0
            138.74394,-34.84113,0
            138.74408,-34.84115,0
            138.74421,-34.84118,0
            138.7444,-34.84125,0
            138.74447,-34.84127,0
            138.74462,-34.8413,0
            138.7448,-34.84132,0
            138.74495,-34.84131,0
            138.74507,-34.84129,0
            138.74518,-34.84124,0
            138.74532,-34.84118,0
            138.74537,-34.84116,0
            138.74544,-34.84115,0
            138.74552,-34.84115,0
            138.74561,-34.84116,0
            138.74569,-34.84117,0
            138.74573,-34.84117,0
            138.74577,-34.84117,0
            138.7458,-34.84116,0
            138.74583,-34.84114,0
            138.74593,-34.8411,0
            138.74626,-34.84092,0
            138.74627,-34.84091,0
            138.74639,-34.84086,0
            138.74649,-34.84082,0
            138.74665,-34.84078,0
            138.7468,-34.84074,0
            138.74695,-34.84071,0
          </coordinates>
        </LineString>
      </Placemark>
      <Placemark>
        <name>Anstey Hill Recreation Park - Gate 9, 1265 Lower North East Rd, Vista SA 5091, Australia</name>
        <styleUrl>#icon-1899-DB4436-nodesc</styleUrl>
        <Point>
          <coordinates>
            138.7250632,-34.8401046,0
          </coordinates>
        </Point>
      </Placemark>
      <Placemark>
        <name>Lower North East Rd, Houghton SA 5131, Australia</name>
        <styleUrl>#icon-1899-DB4436-nodesc</styleUrl>
        <Point>
          <coordinates>
            138.7469469,-34.8407091,0
          </coordinates>
        </Point>
      </Placemark>
    </Folder>
    <Folder>
      <name><![CDATA[SS2 & SS6 Pinkerton Gully 1 & 2]]></name>
      <Placemark>
        <name><![CDATA[SS2 & SS6 Pinkerton Gully 1 & 2]]></name>
        <styleUrl>#line-1267FF-5000-nodesc</styleUrl>
        <LineString>
          <tessellate>1</tessellate>
          <coordinates>
            138.72267,-34.85947,0
            138.7227,-34.85946,0
            138.72275,-34.85946,0
            138.72279,-34.85947,0
            138.72286,-34.85947,0
            138.72287,-34.85948,0
            138.72292,-34.85948,0
            138.72308,-34.85952,0
            138.72329,-34.85957,0
            138.7235,-34.85962,0
            138.72371,-34.85967,0
            138.72382,-34.8597,0
            138.72454,-34.85989,0
            138.72455,-34.85989,0
            138.72475,-34.85995,0
            138.72483,-34.85997,0
            138.72494,-34.85999,0
            138.72496,-34.86,0
            138.72507,-34.86001,0
            138.72518,-34.86003,0
            138.72539,-34.86005,0
            138.72561,-34.86008,0
            138.72583,-34.86011,0
            138.72604,-34.86014,0
            138.72605,-34.86014,0
            138.72632,-34.86016,0
            138.72654,-34.86017,0
            138.72658,-34.86017,0
            138.72676,-34.86017,0
            138.72681,-34.86016,0
            138.72696,-34.86015,0
            138.72698,-34.86014,0
            138.72714,-34.86012,0
            138.7272,-34.86011,0
            138.72733,-34.86009,0
            138.72741,-34.86007,0
            138.72757,-34.86004,0
            138.72802,-34.85988,0
            138.72823,-34.85981,0
            138.72834,-34.85977,0
            138.72878,-34.85961,0
            138.72909,-34.85948,0
            138.72921,-34.85942,0
            138.72939,-34.85933,0
            138.7294,-34.85932,0
            138.72959,-34.85923,0
            138.7296,-34.85922,0
            138.72964,-34.8592,0
            138.7298,-34.85909,0
            138.72984,-34.85906,0
            138.72992,-34.85898,0
            138.73013,-34.85873,0
            138.7304,-34.85838,0
            138.73081,-34.85788,0
            138.73097,-34.85681,0
            138.73095,-34.85657,0
            138.73095,-34.85653,0
            138.73096,-34.85649,0
            138.73097,-34.85648,0
            138.73099,-34.85647,0
            138.731,-34.85646,0
            138.73102,-34.85645,0
            138.73107,-34.85644,0
            138.73108,-34.85644,0
            138.73115,-34.85644,0
            138.73117,-34.85644,0
            138.73121,-34.85646,0
            138.73125,-34.85647,0
            138.73128,-34.8565,0
            138.73137,-34.85662,0
            138.73162,-34.85719,0
            138.73189,-34.85773,0
            138.73208,-34.85806,0
            138.73216,-34.85832,0
            138.73218,-34.8585,0
            138.73219,-34.85864,0
            138.7322,-34.85868,0
            138.7322,-34.85871,0
            138.73222,-34.85878,0
            138.73224,-34.85883,0
            138.73227,-34.85889,0
            138.73232,-34.85896,0
            138.73242,-34.85907,0
            138.7325,-34.85914,0
            138.73258,-34.85919,0
            138.73272,-34.85927,0
            138.73285,-34.85932,0
            138.73288,-34.85934,0
            138.73294,-34.85936,0
            138.73303,-34.8594,0
            138.73308,-34.85941,0
            138.73313,-34.85942,0
            138.73319,-34.85943,0
            138.73325,-34.85944,0
            138.73351,-34.85946,0
            138.73368,-34.85946,0
            138.73379,-34.85946,0
            138.73414,-34.85944,0
            138.73443,-34.85941,0
            138.7345,-34.8594,0
            138.73487,-34.85935,0
            138.73559,-34.85929,0
            138.73653,-34.85938,0
            138.73692,-34.85949,0
            138.7373,-34.85969,0
            138.73753,-34.85993,0
            138.73758,-34.85998,0
            138.73767,-34.86007,0
            138.7377,-34.8601,0
            138.73796,-34.86045,0
            138.73822,-34.86065,0
            138.73855,-34.86083,0
            138.73886,-34.86092,0
            138.73909,-34.86095,0
            138.73923,-34.86093,0
            138.73937,-34.8609,0
            138.73955,-34.86081,0
            138.73963,-34.86075,0
            138.73975,-34.86066,0
            138.73985,-34.86056,0
            138.73998,-34.86036,0
            138.7401,-34.86012,0
            138.7402,-34.85986,0
            138.74026,-34.85975,0
            138.74036,-34.85964,0
            138.74047,-34.85956,0
            138.74054,-34.85953,0
            138.74064,-34.85951,0
            138.74068,-34.85951,0
            138.74074,-34.85952,0
            138.74078,-34.85954,0
            138.74082,-34.85957,0
            138.74093,-34.85969,0
            138.74108,-34.86009,0
            138.74124,-34.8606,0
            138.74133,-34.86114,0
            138.74137,-34.86142,0
            138.74145,-34.86157,0
            138.74164,-34.86192,0
            138.74194,-34.86213,0
            138.74216,-34.86223,0
            138.7425,-34.86229,0
            138.74304,-34.86223,0
            138.7439,-34.86196,0
            138.74502,-34.86155,0
            138.74638,-34.86111,0
            138.74644,-34.8611,0
            138.74648,-34.8611,0
            138.74666,-34.86109,0
            138.74688,-34.86109,0
            138.74703,-34.8611,0
            138.74719,-34.86114,0
            138.74732,-34.86118,0
            138.74738,-34.86119,0
            138.74753,-34.86124,0
            138.74761,-34.86127,0
            138.74775,-34.86133,0
            138.74784,-34.86139,0
            138.74787,-34.86143,0
            138.74788,-34.86147,0
            138.7479,-34.86151,0
            138.74791,-34.86153,0
            138.74791,-34.86155,0
            138.7479,-34.86157,0
            138.74788,-34.86163,0
            138.74784,-34.8617,0
            138.74779,-34.86174,0
            138.74777,-34.86176,0
            138.74767,-34.86182,0
            138.74757,-34.86187,0
            138.74748,-34.8619,0
            138.7473,-34.86195,0
            138.74709,-34.862,0
            138.74701,-34.86202,0
            138.74686,-34.86205,0
            138.74666,-34.86207,0
            138.74647,-34.86209,0
            138.74631,-34.86208,0
            138.74613,-34.86208,0
            138.74612,-34.86208,0
            138.74596,-34.86208,0
            138.74563,-34.86211,0
            138.74541,-34.86215,0
            138.74523,-34.8622,0
            138.74502,-34.8623,0
            138.74486,-34.86242,0
            138.74477,-34.86258,0
            138.74473,-34.86277,0
            138.7448,-34.86298,0
            138.74498,-34.86318,0
            138.74523,-34.86335,0
            138.74555,-34.86344,0
            138.74635,-34.86361,0
            138.74662,-34.86374,0
            138.74673,-34.86379,0
            138.74688,-34.86388,0
            138.74702,-34.86397,0
            138.74729,-34.86414,0
            138.74743,-34.86424,0
            138.74757,-34.86434,0
            138.74813,-34.86479,0
            138.74828,-34.86489,0
            138.74842,-34.86497,0
            138.74885,-34.86519,0
            138.74886,-34.86519,0
            138.74905,-34.86528,0
            138.74906,-34.86528,0
            138.74925,-34.86536,0
            138.7498,-34.86559,0
            138.75004,-34.86567,0
            138.75044,-34.86582,0
            138.75045,-34.86583,0
            138.75064,-34.86589,0
            138.75117,-34.86607,0
            138.75132,-34.86614,0
            138.75139,-34.8662,0
            138.75142,-34.86625,0
            138.75146,-34.86632,0
            138.75147,-34.86637,0
            138.75147,-34.86644,0
            138.75145,-34.8665,0
            138.75144,-34.86653,0
            138.75142,-34.86656,0
            138.75138,-34.86665,0
            138.75135,-34.86672,0
            138.75133,-34.86678,0
            138.75133,-34.86685,0
            138.75134,-34.8669,0
            138.75136,-34.86696,0
            138.75168,-34.86749,0
            138.75179,-34.86772,0
            138.75179,-34.86773,0
            138.75186,-34.86787,0
            138.75187,-34.86789,0
            138.75187,-34.8679,0
            138.752,-34.86813,0
            138.75222,-34.86862,0
            138.75234,-34.86883,0
            138.75249,-34.86902,0
            138.75257,-34.86911,0
            138.75264,-34.86918,0
          </coordinates>
        </LineString>
      </Placemark>
      <Placemark>
        <name>498 Gorge Rd</name>
        <styleUrl>#icon-1899-DB4436-nodesc</styleUrl>
        <Point>
          <coordinates>
            138.7226656,-34.859466,0
          </coordinates>
        </Point>
      </Placemark>
      <Placemark>
        <name>1105 Gorge Rd, Castambul SA 5076, Australia</name>
        <styleUrl>#icon-1899-DB4436-nodesc</styleUrl>
        <Point>
          <coordinates>
            138.7526407,-34.8691817,0
          </coordinates>
        </Point>
      </Placemark>
    </Folder>
    <Folder>
      <name><![CDATA[SS3 & SS7 Paracombe 1 & 2]]></name>
      <Placemark>
        <name><![CDATA[SS3 & SS7 Paracombe 1 & 2]]></name>
        <styleUrl>#line-1267FF-5000-nodesc</styleUrl>
        <LineString>
          <tessellate>1</tessellate>
          <coordinates>
            138.75954,-34.86444,0
            138.76059,-34.86418,0
            138.7608,-34.86413,0
            138.76121,-34.86403,0
            138.76139,-34.864,0
            138.76153,-34.86399,0
            138.76165,-34.864,0
            138.76169,-34.864,0
            138.76187,-34.86401,0
            138.76189,-34.86402,0
            138.76216,-34.86405,0
            138.76231,-34.86405,0
            138.76245,-34.86405,0
            138.76252,-34.86404,0
            138.76258,-34.86403,0
            138.76268,-34.86401,0
            138.76273,-34.864,0
            138.76277,-34.86398,0
            138.76286,-34.86396,0
            138.76297,-34.86391,0
            138.76303,-34.86387,0
            138.76308,-34.86384,0
            138.76315,-34.86379,0
            138.76322,-34.86373,0
            138.76326,-34.86367,0
            138.76334,-34.86359,0
            138.76337,-34.86353,0
            138.76341,-34.86347,0
            138.76343,-34.86342,0
            138.76347,-34.86332,0
            138.7635,-34.86323,0
            138.76352,-34.86314,0
            138.76357,-34.8629,0
            138.76361,-34.86275,0
            138.76364,-34.86266,0
            138.76367,-34.86258,0
            138.76371,-34.86252,0
            138.76373,-34.8625,0
            138.76377,-34.86245,0
            138.76382,-34.86238,0
            138.76388,-34.86232,0
            138.76395,-34.86226,0
            138.76405,-34.86219,0
            138.76416,-34.86213,0
            138.76429,-34.86207,0
            138.76444,-34.86203,0
            138.76458,-34.86201,0
            138.7646,-34.86201,0
            138.76471,-34.862,0
            138.76487,-34.862,0
            138.76497,-34.86201,0
            138.76503,-34.86202,0
            138.76507,-34.86203,0
            138.76515,-34.86205,0
            138.76523,-34.86208,0
            138.76524,-34.86209,0
            138.76539,-34.86215,0
            138.7655,-34.86222,0
            138.76563,-34.86233,0
            138.76572,-34.86244,0
            138.76579,-34.86254,0
            138.76583,-34.86262,0
            138.76586,-34.86271,0
            138.76591,-34.86284,0
            138.76595,-34.86313,0
            138.76598,-34.8633,0
            138.76599,-34.86339,0
            138.766,-34.8635,0
            138.766,-34.86363,0
            138.766,-34.86392,0
            138.76602,-34.86404,0
            138.76605,-34.86412,0
            138.76614,-34.86427,0
            138.76621,-34.86434,0
            138.76624,-34.86437,0
            138.76634,-34.86444,0
            138.76638,-34.86445,0
            138.76648,-34.8645,0
            138.76657,-34.86453,0
            138.76669,-34.86456,0
            138.76679,-34.86457,0
            138.76687,-34.86456,0
            138.76703,-34.86454,0
            138.76713,-34.86451,0
            138.76722,-34.86448,0
            138.76741,-34.86441,0
            138.76768,-34.86432,0
            138.76775,-34.86429,0
            138.76782,-34.86428,0
            138.76794,-34.86426,0
            138.76808,-34.86424,0
            138.76829,-34.86424,0
            138.76843,-34.86425,0
            138.76856,-34.86427,0
            138.76871,-34.86431,0
            138.76874,-34.86433,0
            138.76889,-34.86438,0
            138.76905,-34.86447,0
            138.76925,-34.86458,0
            138.76946,-34.86471,0
            138.7696,-34.86478,0
            138.76971,-34.86482,0
            138.76983,-34.86486,0
            138.76994,-34.86488,0
            138.77006,-34.86489,0
            138.77021,-34.86488,0
            138.77036,-34.86486,0
            138.77049,-34.86483,0
            138.77061,-34.86478,0
            138.77074,-34.86471,0
            138.77092,-34.8646,0
            138.771,-34.86454,0
            138.77105,-34.86451,0
            138.77116,-34.86444,0
            138.77118,-34.86443,0
            138.7714,-34.8643,0
            138.7715,-34.86426,0
            138.77161,-34.86422,0
            138.77176,-34.86419,0
            138.77196,-34.86416,0
            138.77213,-34.86416,0
            138.77232,-34.86418,0
            138.77248,-34.86421,0
            138.7729,-34.8643,0
            138.77347,-34.86443,0
            138.77353,-34.86444,0
            138.77381,-34.86451,0
            138.7741,-34.86457,0
            138.77416,-34.86458,0
            138.77438,-34.86463,0
            138.7746,-34.86468,0
            138.77483,-34.86472,0
            138.77493,-34.86473,0
            138.7751,-34.86472,0
            138.77523,-34.86471,0
            138.7754,-34.86467,0
            138.77579,-34.86455,0
            138.7765,-34.8643,0
            138.77703,-34.86412,0
            138.77711,-34.8641,0
            138.77719,-34.86409,0
            138.77732,-34.86407,0
            138.77745,-34.86407,0
            138.7776,-34.86408,0
            138.77779,-34.86411,0
            138.7779,-34.86413,0
            138.77801,-34.86416,0
            138.77812,-34.8642,0
            138.77828,-34.86424,0
            138.77843,-34.86426,0
            138.7786,-34.86428,0
            138.77874,-34.86429,0
            138.77888,-34.86428,0
            138.77902,-34.86426,0
            138.77925,-34.8642,0
            138.77952,-34.86415,0
            138.77964,-34.86412,0
            138.77984,-34.86408,0
            138.77996,-34.86408,0
            138.78006,-34.86407,0
            138.78122,-34.86407,0
            138.78253,-34.86406,0
            138.78357,-34.86404,0
            138.78369,-34.86404,0
            138.78382,-34.86402,0
            138.78398,-34.86398,0
            138.78409,-34.86394,0
            138.78416,-34.8639,0
            138.78425,-34.86383,0
            138.78432,-34.86376,0
            138.78437,-34.86368,0
            138.78443,-34.8636,0
            138.78443,-34.86359,0
            138.78445,-34.86352,0
            138.78446,-34.86344,0
            138.78447,-34.86334,0
            138.78444,-34.86315,0
            138.78443,-34.86305,0
            138.78441,-34.86289,0
            138.7844,-34.86271,0
            138.78438,-34.86253,0
            138.78431,-34.86181,0
            138.7843,-34.86163,0
            138.78429,-34.86154,0
            138.78431,-34.86145,0
            138.78432,-34.86137,0
            138.78434,-34.86129,0
            138.78438,-34.86121,0
            138.78441,-34.86113,0
            138.78445,-34.86107,0
            138.78451,-34.86099,0
            138.78456,-34.86093,0
            138.78463,-34.86086,0
            138.78468,-34.86082,0
            138.78472,-34.86078,0
            138.78485,-34.8607,0
            138.78486,-34.86069,0
            138.78502,-34.86062,0
            138.7852,-34.86055,0
            138.78539,-34.86051,0
            138.7856,-34.86049,0
            138.78589,-34.86048,0
            138.78611,-34.86047,0
            138.78617,-34.86047,0
            138.78639,-34.86046,0
            138.78655,-34.86044,0
            138.78663,-34.86043,0
            138.78676,-34.86039,0
            138.78688,-34.86035,0
            138.78704,-34.86026,0
            138.78712,-34.8602,0
            138.7872,-34.86013,0
            138.78725,-34.86006,0
            138.78729,-34.86001,0
            138.78736,-34.85984,0
            138.7874,-34.85966,0
            138.7874,-34.85952,0
            138.78736,-34.85935,0
            138.78709,-34.85887,0
            138.787,-34.85871,0
            138.78681,-34.85838,0
            138.78678,-34.85832,0
            138.78669,-34.85815,0
            138.78664,-34.85802,0
            138.78663,-34.85793,0
            138.78663,-34.85787,0
            138.78664,-34.85779,0
            138.78668,-34.8577,0
            138.78671,-34.85763,0
            138.78676,-34.85755,0
            138.78683,-34.85747,0
            138.78692,-34.8574,0
            138.78697,-34.85736,0
            138.787,-34.85735,0
            138.78703,-34.85733,0
            138.78713,-34.85729,0
            138.78724,-34.85725,0
            138.78734,-34.85723,0
            138.7875,-34.85722,0
            138.78764,-34.85724,0
            138.7878,-34.85729,0
            138.78795,-34.85736,0
            138.78807,-34.85744,0
            138.78825,-34.85762,0
            138.78833,-34.85769,0
            138.78861,-34.85797,0
            138.78872,-34.85805,0
            138.78883,-34.8581,0
            138.78888,-34.85812,0
            138.78897,-34.85814,0
            138.78911,-34.85816,0
            138.78915,-34.85816,0
            138.7893,-34.85815,0
            138.78931,-34.85815,0
            138.78937,-34.85815,0
            138.78939,-34.85814,0
            138.7895,-34.85812,0
            138.78957,-34.85809,0
            138.78963,-34.85807,0
            138.7897,-34.85802,0
            138.78972,-34.858,0
            138.78982,-34.85792,0
            138.78991,-34.85782,0
            138.78996,-34.85773,0
            138.79001,-34.8576,0
            138.79005,-34.85751,0
            138.79009,-34.8574,0
            138.79009,-34.85739,0
            138.79011,-34.85734,0
            138.79034,-34.85671,0
            138.79042,-34.85654,0
            138.79042,-34.85653,0
            138.79044,-34.85649,0
            138.7905,-34.85637,0
            138.79074,-34.85585,0
            138.79076,-34.85582,0
            138.79081,-34.8557,0
            138.79081,-34.85569,0
            138.79083,-34.85566,0
            138.79094,-34.85529,0
            138.79097,-34.85517,0
            138.79098,-34.85512,0
            138.79099,-34.8551,0
            138.79099,-34.85503,0
            138.79099,-34.85494,0
            138.79099,-34.8549,0
            138.79097,-34.85482,0
            138.79097,-34.85481,0
            138.79096,-34.85476,0
            138.7909,-34.85448,0
            138.79088,-34.85434,0
            138.79086,-34.85419,0
            138.79087,-34.85404,0
            138.79089,-34.85395,0
            138.79093,-34.85383,0
            138.79097,-34.85376,0
            138.79099,-34.85371,0
            138.79102,-34.85365,0
            138.79106,-34.85359,0
            138.79108,-34.85354,0
            138.79119,-34.85337,0
            138.79135,-34.85311,0
            138.79146,-34.85292,0
            138.7915,-34.85283,0
            138.79151,-34.85277,0
            138.79152,-34.85273,0
            138.79152,-34.85272,0
            138.79153,-34.85264,0
            138.79153,-34.85257,0
            138.79152,-34.8525,0
            138.7915,-34.85244,0
            138.79148,-34.85238,0
            138.79143,-34.85226,0
            138.79139,-34.85217,0
            138.79128,-34.85196,0
            138.79119,-34.85181,0
            138.79116,-34.85175,0
            138.79114,-34.85171,0
            138.7911,-34.85162,0
            138.79106,-34.8515,0
            138.79104,-34.85142,0
            138.79103,-34.85141,0
            138.79102,-34.85136,0
            138.79102,-34.85132,0
            138.79101,-34.85123,0
            138.79101,-34.85118,0
            138.791,-34.85115,0
            138.79102,-34.85108,0
            138.79103,-34.85101,0
            138.79103,-34.851,0
            138.79106,-34.8509,0
            138.79107,-34.85088,0
            138.79109,-34.85083,0
            138.79112,-34.85077,0
            138.79119,-34.85066,0
            138.79128,-34.85055,0
            138.79136,-34.85047,0
            138.79141,-34.85043,0
            138.79146,-34.85039,0
            138.79149,-34.85037,0
            138.79158,-34.85031,0
            138.79167,-34.85024,0
            138.79198,-34.85005,0
            138.7921,-34.84998,0
            138.79223,-34.8499,0
            138.7924,-34.84981,0
            138.79254,-34.84974,0
            138.79275,-34.84966,0
            138.79286,-34.84962,0
            138.79306,-34.84955,0
            138.79309,-34.84954,0
            138.79336,-34.84947,0
            138.7943,-34.8492,0
            138.79451,-34.84915,0
            138.79534,-34.84891,0
            138.79537,-34.84891,0
            138.79548,-34.84888,0
            138.79555,-34.84887,0
            138.79566,-34.84885,0
            138.79577,-34.84884,0
            138.79588,-34.84884,0
            138.79599,-34.84885,0
            138.796,-34.84885,0
            138.79614,-34.84886,0
            138.79625,-34.84889,0
            138.79637,-34.84892,0
            138.79647,-34.84896,0
            138.79655,-34.84899,0
            138.79663,-34.84904,0
            138.79672,-34.84909,0
            138.79687,-34.84919,0
            138.79687,-34.8492,0
          </coordinates>
        </LineString>
      </Placemark>
      <Placemark>
        <name>1185 Gorge Rd, Paracombe SA 5132, Australia</name>
        <styleUrl>#icon-1899-DB4436-nodesc</styleUrl>
        <Point>
          <coordinates>
            138.7595406,-34.8644408,0
          </coordinates>
        </Point>
      </Placemark>
      <Placemark>
        <name>Gorge Rd, Cudlee Creek SA 5232, Australia</name>
        <styleUrl>#icon-1899-DB4436-nodesc</styleUrl>
        <Point>
          <coordinates>
            138.7968716,-34.8491969,0
          </coordinates>
        </Point>
      </Placemark>
    </Folder>
    <Folder>
      <name><![CDATA[SS4 & SS8 Prairie 1 & 2]]></name>
      <Placemark>
        <name><![CDATA[SS4 & SS8 Prairie 1 & 2]]></name>
        <styleUrl>#line-1267FF-5000-nodesc</styleUrl>
        <LineString>
          <tessellate>1</tessellate>
          <coordinates>
            138.7984,-34.84752,0
            138.79799,-34.84726,0
            138.79762,-34.84704,0
            138.79751,-34.84698,0
            138.79742,-34.84694,0
            138.7973,-34.84689,0
            138.79729,-34.84688,0
            138.79711,-34.8468,0
            138.79653,-34.84654,0
            138.79595,-34.84628,0
            138.79545,-34.84605,0
            138.79509,-34.84588,0
            138.79488,-34.84576,0
            138.79478,-34.84567,0
            138.79469,-34.84557,0
            138.79463,-34.84549,0
            138.79458,-34.84538,0
            138.79454,-34.84524,0
            138.79454,-34.84509,0
            138.79456,-34.84497,0
            138.79462,-34.84484,0
            138.79468,-34.84475,0
            138.79477,-34.84464,0
            138.79487,-34.84453,0
            138.7949,-34.84449,0
            138.79519,-34.84419,0
            138.79526,-34.8441,0
            138.79534,-34.84399,0
            138.79545,-34.84383,0
            138.79599,-34.84317,0
            138.7961,-34.84304,0
            138.79624,-34.84293,0
            138.79637,-34.84287,0
            138.79649,-34.84282,0
            138.7965,-34.84282,0
            138.7966,-34.84279,0
            138.7967,-34.8428,0
            138.79672,-34.8428,0
            138.7968,-34.84281,0
            138.79693,-34.84284,0
            138.79706,-34.84291,0
            138.79719,-34.843,0
            138.79729,-34.84305,0
            138.79741,-34.84308,0
            138.79754,-34.84309,0
            138.79767,-34.84308,0
            138.79786,-34.84304,0
            138.79825,-34.84293,0
            138.7988,-34.84277,0
            138.79881,-34.84276,0
            138.79885,-34.84271,0
            138.79895,-34.84266,0
            138.79904,-34.84261,0
            138.79947,-34.84229,0
            138.79967,-34.84215,0
            138.79981,-34.84203,0
            138.79991,-34.84192,0
            138.80007,-34.84173,0
            138.8002,-34.84161,0
            138.80023,-34.84159,0
            138.80037,-34.84153,0
            138.80044,-34.84152,0
            138.80052,-34.84151,0
            138.80057,-34.84152,0
            138.80064,-34.84153,0
            138.80081,-34.84157,0
            138.80098,-34.84163,0
            138.80123,-34.84173,0
            138.80144,-34.84186,0
            138.80208,-34.84227,0
            138.8021,-34.84228,0
            138.8022,-34.84229,0
            138.80232,-34.84231,0
            138.80258,-34.84231,0
            138.8028,-34.84231,0
            138.80304,-34.84229,0
            138.80318,-34.84227,0
            138.8033,-34.84223,0
            138.80335,-34.8422,0
            138.80342,-34.84215,0
            138.80345,-34.84212,0
            138.80347,-34.84208,0
            138.80351,-34.84201,0
            138.80356,-34.84188,0
            138.8036,-34.84173,0
            138.80361,-34.84166,0
            138.80361,-34.8416,0
            138.80357,-34.84149,0
            138.80348,-34.84129,0
            138.80343,-34.84114,0
            138.80343,-34.84113,0
            138.80338,-34.84094,0
            138.80333,-34.84081,0
            138.8032,-34.84063,0
            138.80314,-34.84054,0
            138.8031,-34.84049,0
            138.80309,-34.84048,0
            138.80305,-34.8404,0
            138.80304,-34.84035,0
            138.80304,-34.8403,0
            138.80305,-34.84023,0
            138.80306,-34.84021,0
            138.8031,-34.84016,0
            138.80316,-34.84011,0
            138.80319,-34.8401,0
            138.80324,-34.84009,0
            138.80331,-34.84007,0
            138.80338,-34.84006,0
            138.80346,-34.84007,0
            138.80353,-34.84007,0
            138.80362,-34.84009,0
            138.80374,-34.84013,0
            138.80385,-34.84017,0
            138.80443,-34.8404,0
            138.80453,-34.84042,0
            138.80462,-34.84043,0
            138.80475,-34.84043,0
            138.80494,-34.84042,0
            138.8051,-34.8404,0
            138.80526,-34.8404,0
            138.80539,-34.84041,0
            138.8055,-34.84043,0
            138.80563,-34.84046,0
            138.80581,-34.84053,0
            138.8059,-34.84057,0
            138.80601,-34.84062,0
            138.80627,-34.84071,0
            138.80645,-34.84078,0
            138.80662,-34.84087,0
            138.80677,-34.84096,0
            138.80683,-34.84101,0
            138.80688,-34.84104,0
            138.80699,-34.84111,0
            138.80701,-34.84112,0
            138.8071,-34.84115,0
            138.80718,-34.84115,0
            138.80726,-34.84115,0
            138.80737,-34.84113,0
            138.80747,-34.84108,0
            138.80758,-34.84101,0
            138.8077,-34.84087,0
            138.80795,-34.84049,0
            138.80806,-34.84027,0
            138.80818,-34.83991,0
            138.80823,-34.8397,0
            138.80823,-34.83945,0
            138.80825,-34.83931,0
            138.8083,-34.83917,0
            138.80836,-34.83907,0
            138.80844,-34.839,0
            138.80856,-34.83892,0
            138.80867,-34.83887,0
            138.80876,-34.83885,0
            138.80884,-34.83885,0
            138.80893,-34.83887,0
            138.80902,-34.8389,0
            138.80912,-34.83896,0
            138.80923,-34.83907,0
            138.8093,-34.83917,0
            138.80934,-34.83926,0
            138.80936,-34.83933,0
            138.80937,-34.83939,0
            138.80936,-34.83946,0
            138.80933,-34.83954,0
            138.80922,-34.8398,0
            138.80916,-34.84001,0
            138.80915,-34.84024,0
            138.80915,-34.84036,0
            138.80916,-34.84047,0
            138.80919,-34.84058,0
            138.80922,-34.84066,0
            138.80926,-34.84071,0
            138.80932,-34.84079,0
            138.80939,-34.84084,0
            138.80974,-34.84104,0
            138.80993,-34.84113,0
            138.80997,-34.84114,0
          </coordinates>
        </LineString>
      </Placemark>
      <Placemark>
        <name>Gorge Rd, Millbrook SA 5231, Australia</name>
        <styleUrl>#icon-1899-DB4436-nodesc</styleUrl>
        <Point>
          <coordinates>
            138.7983992,-34.847518,0
          </coordinates>
        </Point>
      </Placemark>
      <Placemark>
        <name>14 Prairie Rd, Cudlee Creek SA 5232, Australia</name>
        <styleUrl>#icon-1899-DB4436-nodesc</styleUrl>
        <Point>
          <coordinates>
            138.8099659,-34.8411449,0
          </coordinates>
        </Point>
      </Placemark>
    </Folder>
    <Folder>
      <name>SS9 Karrawirra</name>
      <Placemark>
        <name>SS9 Karrawirra</name>
        <styleUrl>#line-1267FF-5000-nodesc</styleUrl>
        <LineString>
          <tessellate>1</tessellate>
          <coordinates>
            138.80997,-34.84114,0
            138.80993,-34.84113,0
            138.80974,-34.84104,0
            138.80939,-34.84084,0
            138.80932,-34.84079,0
            138.80926,-34.84071,0
            138.80922,-34.84066,0
            138.80919,-34.84058,0
            138.80916,-34.84047,0
            138.80915,-34.84036,0
            138.80915,-34.84024,0
            138.80916,-34.84001,0
            138.80922,-34.8398,0
            138.80933,-34.83954,0
            138.80936,-34.83946,0
            138.80937,-34.83939,0
            138.80936,-34.83933,0
            138.80934,-34.83926,0
            138.8093,-34.83917,0
            138.80923,-34.83907,0
            138.80912,-34.83896,0
            138.80902,-34.8389,0
            138.80893,-34.83887,0
            138.80884,-34.83885,0
            138.80876,-34.83885,0
            138.80867,-34.83887,0
            138.80856,-34.83892,0
            138.80844,-34.839,0
            138.80836,-34.83907,0
            138.8083,-34.83917,0
            138.80825,-34.83931,0
            138.80823,-34.83945,0
            138.80823,-34.8397,0
            138.80818,-34.83991,0
            138.80806,-34.84027,0
            138.80795,-34.84049,0
            138.8077,-34.84087,0
            138.80758,-34.84101,0
            138.80747,-34.84108,0
            138.80737,-34.84113,0
            138.80726,-34.84115,0
            138.80718,-34.84115,0
            138.8071,-34.84115,0
            138.80701,-34.84112,0
            138.80699,-34.84111,0
            138.80688,-34.84104,0
            138.80683,-34.84101,0
            138.80677,-34.84096,0
            138.80662,-34.84087,0
            138.80645,-34.84078,0
            138.80627,-34.84071,0
            138.80601,-34.84062,0
            138.8059,-34.84057,0
            138.80581,-34.84053,0
            138.80563,-34.84046,0
            138.8055,-34.84043,0
            138.80539,-34.84041,0
            138.80526,-34.8404,0
            138.8051,-34.8404,0
            138.80494,-34.84042,0
            138.80475,-34.84043,0
            138.80462,-34.84043,0
            138.80453,-34.84042,0
            138.80443,-34.8404,0
            138.80385,-34.84017,0
            138.80374,-34.84013,0
            138.80362,-34.84009,0
            138.80353,-34.84007,0
            138.80346,-34.84007,0
            138.80338,-34.84006,0
            138.80331,-34.84007,0
            138.80324,-34.84009,0
            138.80319,-34.8401,0
            138.80316,-34.84011,0
            138.8031,-34.84016,0
            138.80306,-34.84021,0
            138.80305,-34.84023,0
            138.80304,-34.8403,0
            138.80304,-34.84035,0
            138.80305,-34.8404,0
            138.80309,-34.84048,0
            138.8031,-34.84049,0
            138.80314,-34.84054,0
            138.8032,-34.84063,0
            138.80333,-34.84081,0
            138.80338,-34.84094,0
            138.80343,-34.84113,0
            138.80343,-34.84114,0
            138.80348,-34.84129,0
            138.80357,-34.84149,0
            138.80361,-34.8416,0
            138.80361,-34.84166,0
            138.8036,-34.84173,0
            138.80356,-34.84188,0
            138.80351,-34.84201,0
            138.80347,-34.84208,0
            138.80345,-34.84212,0
            138.80342,-34.84215,0
            138.80335,-34.8422,0
            138.8033,-34.84223,0
            138.80318,-34.84227,0
            138.80304,-34.84229,0
            138.8028,-34.84231,0
            138.80258,-34.84231,0
            138.80232,-34.84231,0
            138.8022,-34.84229,0
            138.8021,-34.84228,0
            138.80208,-34.84227,0
            138.80144,-34.84186,0
            138.80123,-34.84173,0
            138.80098,-34.84163,0
            138.80081,-34.84157,0
            138.80064,-34.84153,0
            138.80057,-34.84152,0
            138.80052,-34.84151,0
            138.80044,-34.84152,0
            138.80037,-34.84153,0
            138.80023,-34.84159,0
            138.8002,-34.84161,0
            138.80007,-34.84173,0
            138.79991,-34.84192,0
            138.79981,-34.84203,0
            138.79967,-34.84215,0
            138.79947,-34.84229,0
            138.79904,-34.84261,0
            138.79895,-34.84266,0
            138.79885,-34.84271,0
            138.79881,-34.84276,0
            138.7988,-34.84277,0
            138.79825,-34.84293,0
            138.79786,-34.84304,0
            138.79767,-34.84308,0
            138.79754,-34.84309,0
            138.79741,-34.84308,0
            138.79729,-34.84305,0
            138.79719,-34.843,0
            138.79706,-34.84291,0
            138.79693,-34.84284,0
            138.7968,-34.84281,0
            138.79672,-34.8428,0
            138.7967,-34.8428,0
            138.7966,-34.84279,0
            138.7965,-34.84282,0
            138.79649,-34.84282,0
            138.79637,-34.84287,0
            138.79624,-34.84293,0
            138.7961,-34.84304,0
            138.79599,-34.84317,0
            138.79545,-34.84383,0
            138.79534,-34.84399,0
            138.79526,-34.8441,0
            138.79519,-34.84419,0
            138.7949,-34.84449,0
            138.79487,-34.84453,0
            138.79477,-34.84464,0
            138.79468,-34.84475,0
            138.79462,-34.84484,0
            138.79456,-34.84497,0
            138.79454,-34.84509,0
            138.79454,-34.84524,0
            138.79458,-34.84538,0
            138.79463,-34.84549,0
            138.79469,-34.84557,0
            138.79478,-34.84567,0
            138.79488,-34.84576,0
            138.79509,-34.84588,0
            138.79545,-34.84605,0
            138.79595,-34.84628,0
            138.79653,-34.84654,0
            138.79711,-34.8468,0
            138.79729,-34.84688,0
            138.7973,-34.84689,0
            138.79742,-34.84694,0
            138.79751,-34.84698,0
            138.79762,-34.84704,0
            138.79799,-34.84726,0
            138.7984,-34.84752,0
          </coordinates>
        </LineString>
      </Placemark>
      <Placemark>
        <name>14 Prairie Rd, Cudlee Creek SA 5232, Australia</name>
        <styleUrl>#icon-1899-DB4436-nodesc</styleUrl>
        <Point>
          <coordinates>
            138.8099659,-34.8411449,0
          </coordinates>
        </Point>
      </Placemark>
      <Placemark>
        <name>Gorge Rd, Millbrook SA 5231, Australia</name>
        <styleUrl>#icon-1899-DB4436-nodesc</styleUrl>
        <Point>
          <coordinates>
            138.7983992,-34.847518,0
          </coordinates>
        </Point>
      </Placemark>
    </Folder>
    <Folder>
      <name>SS10 Kangaroo Creek</name>
      <Placemark>
        <name>SS10 Kangaroo Creek</name>
        <styleUrl>#line-1267FF-5000-nodesc</styleUrl>
        <LineString>
          <tessellate>1</tessellate>
          <coordinates>
            138.79687,-34.8492,0
            138.79687,-34.84919,0
            138.79672,-34.84909,0
            138.79663,-34.84904,0
            138.79655,-34.84899,0
            138.79647,-34.84896,0
            138.79637,-34.84892,0
            138.79625,-34.84889,0
            138.79614,-34.84886,0
            138.796,-34.84885,0
            138.79599,-34.84885,0
            138.79588,-34.84884,0
            138.79577,-34.84884,0
            138.79566,-34.84885,0
            138.79555,-34.84887,0
            138.79548,-34.84888,0
            138.79537,-34.84891,0
            138.79534,-34.84891,0
            138.79451,-34.84915,0
            138.7943,-34.8492,0
            138.79336,-34.84947,0
            138.79309,-34.84954,0
            138.79306,-34.84955,0
            138.79286,-34.84962,0
            138.79275,-34.84966,0
            138.79254,-34.84974,0
            138.7924,-34.84981,0
            138.79223,-34.8499,0
            138.7921,-34.84998,0
            138.79198,-34.85005,0
            138.79167,-34.85024,0
            138.79158,-34.85031,0
            138.79149,-34.85037,0
            138.79146,-34.85039,0
            138.79141,-34.85043,0
            138.79136,-34.85047,0
            138.79128,-34.85055,0
            138.79119,-34.85066,0
            138.79112,-34.85077,0
            138.79109,-34.85083,0
            138.79107,-34.85088,0
            138.79106,-34.8509,0
            138.79103,-34.851,0
            138.79103,-34.85101,0
            138.79102,-34.85108,0
            138.791,-34.85115,0
            138.79101,-34.85118,0
            138.79101,-34.85123,0
            138.79102,-34.85132,0
            138.79102,-34.85136,0
            138.79103,-34.85141,0
            138.79104,-34.85142,0
            138.79106,-34.8515,0
            138.7911,-34.85162,0
            138.79114,-34.85171,0
            138.79116,-34.85175,0
            138.79119,-34.85181,0
            138.79128,-34.85196,0
            138.79139,-34.85217,0
            138.79143,-34.85226,0
            138.79148,-34.85238,0
            138.7915,-34.85244,0
            138.79152,-34.8525,0
            138.79153,-34.85257,0
            138.79153,-34.85264,0
            138.79152,-34.85272,0
            138.79152,-34.85273,0
            138.79151,-34.85277,0
            138.7915,-34.85283,0
            138.79146,-34.85292,0
            138.79135,-34.85311,0
            138.79119,-34.85337,0
            138.79108,-34.85354,0
            138.79106,-34.85359,0
            138.79102,-34.85365,0
            138.79099,-34.85371,0
            138.79097,-34.85376,0
            138.79093,-34.85383,0
            138.79089,-34.85395,0
            138.79087,-34.85404,0
            138.79086,-34.85419,0
            138.79088,-34.85434,0
            138.7909,-34.85448,0
            138.79096,-34.85476,0
            138.79097,-34.85481,0
            138.79097,-34.85482,0
            138.79099,-34.8549,0
            138.79099,-34.85494,0
            138.79099,-34.85503,0
            138.79099,-34.8551,0
            138.79098,-34.85512,0
            138.79097,-34.85517,0
            138.79094,-34.85529,0
            138.79083,-34.85566,0
            138.79081,-34.85569,0
            138.79081,-34.8557,0
            138.79076,-34.85582,0
            138.79074,-34.85585,0
            138.7905,-34.85637,0
            138.79044,-34.85649,0
            138.79042,-34.85653,0
            138.79042,-34.85654,0
            138.79034,-34.85671,0
            138.79011,-34.85734,0
            138.79009,-34.85739,0
            138.79009,-34.8574,0
            138.79005,-34.85751,0
            138.79001,-34.8576,0
            138.78996,-34.85773,0
            138.78991,-34.85782,0
            138.78982,-34.85792,0
            138.78972,-34.858,0
            138.7897,-34.85802,0
            138.78963,-34.85807,0
            138.78957,-34.85809,0
            138.7895,-34.85812,0
            138.78939,-34.85814,0
            138.78937,-34.85815,0
            138.78931,-34.85815,0
            138.7893,-34.85815,0
            138.78915,-34.85816,0
            138.78911,-34.85816,0
            138.78897,-34.85814,0
            138.78888,-34.85812,0
            138.78883,-34.8581,0
            138.78872,-34.85805,0
            138.78861,-34.85797,0
            138.78833,-34.85769,0
            138.78825,-34.85762,0
            138.78807,-34.85744,0
            138.78795,-34.85736,0
            138.7878,-34.85729,0
            138.78764,-34.85724,0
            138.7875,-34.85722,0
            138.78734,-34.85723,0
            138.78724,-34.85725,0
            138.78713,-34.85729,0
            138.78703,-34.85733,0
            138.787,-34.85735,0
            138.78697,-34.85736,0
            138.78692,-34.8574,0
            138.78683,-34.85747,0
            138.78676,-34.85755,0
            138.78671,-34.85763,0
            138.78668,-34.8577,0
            138.78664,-34.85779,0
            138.78663,-34.85787,0
            138.78663,-34.85793,0
            138.78664,-34.85802,0
            138.78669,-34.85815,0
            138.78678,-34.85832,0
            138.78681,-34.85838,0
            138.787,-34.85871,0
            138.78709,-34.85887,0
            138.78736,-34.85935,0
            138.7874,-34.85952,0
            138.7874,-34.85966,0
            138.78736,-34.85984,0
            138.78729,-34.86001,0
            138.78725,-34.86006,0
            138.7872,-34.86013,0
            138.78712,-34.8602,0
            138.78704,-34.86026,0
            138.78688,-34.86035,0
            138.78676,-34.86039,0
            138.78663,-34.86043,0
            138.78655,-34.86044,0
            138.78639,-34.86046,0
            138.78617,-34.86047,0
            138.78611,-34.86047,0
            138.78589,-34.86048,0
            138.7856,-34.86049,0
            138.78539,-34.86051,0
            138.7852,-34.86055,0
            138.78502,-34.86062,0
            138.78486,-34.86069,0
            138.78485,-34.8607,0
            138.78472,-34.86078,0
            138.78468,-34.86082,0
            138.78463,-34.86086,0
            138.78456,-34.86093,0
            138.78451,-34.86099,0
            138.78445,-34.86107,0
            138.78441,-34.86113,0
            138.78438,-34.86121,0
            138.78434,-34.86129,0
            138.78432,-34.86137,0
            138.78431,-34.86145,0
            138.78429,-34.86154,0
            138.7843,-34.86163,0
            138.78431,-34.86181,0
            138.78438,-34.86253,0
            138.7844,-34.86271,0
            138.78441,-34.86289,0
            138.78443,-34.86305,0
            138.78444,-34.86315,0
            138.78447,-34.86334,0
            138.78446,-34.86344,0
            138.78445,-34.86352,0
            138.78443,-34.86359,0
            138.78443,-34.8636,0
            138.78437,-34.86368,0
            138.78432,-34.86376,0
            138.78425,-34.86383,0
            138.78416,-34.8639,0
            138.78409,-34.86394,0
            138.78398,-34.86398,0
            138.78382,-34.86402,0
            138.78369,-34.86404,0
            138.78357,-34.86404,0
            138.78253,-34.86406,0
            138.78122,-34.86407,0
            138.78006,-34.86407,0
            138.77996,-34.86408,0
            138.77984,-34.86408,0
            138.77964,-34.86412,0
            138.77952,-34.86415,0
            138.77925,-34.8642,0
            138.77902,-34.86426,0
            138.77888,-34.86428,0
            138.77874,-34.86429,0
            138.7786,-34.86428,0
            138.77843,-34.86426,0
            138.77828,-34.86424,0
            138.77812,-34.8642,0
            138.77801,-34.86416,0
            138.7779,-34.86413,0
            138.77779,-34.86411,0
            138.7776,-34.86408,0
            138.77745,-34.86407,0
            138.77732,-34.86407,0
            138.77719,-34.86409,0
            138.77711,-34.8641,0
            138.77703,-34.86412,0
            138.7765,-34.8643,0
            138.77579,-34.86455,0
            138.7754,-34.86467,0
            138.77523,-34.86471,0
            138.7751,-34.86472,0
            138.77493,-34.86473,0
            138.77483,-34.86472,0
            138.7746,-34.86468,0
            138.77438,-34.86463,0
            138.77416,-34.86458,0
            138.7741,-34.86457,0
            138.77381,-34.86451,0
            138.77353,-34.86444,0
            138.77347,-34.86443,0
            138.7729,-34.8643,0
            138.77248,-34.86421,0
            138.77232,-34.86418,0
            138.77213,-34.86416,0
            138.77196,-34.86416,0
            138.77176,-34.86419,0
            138.77161,-34.86422,0
            138.7715,-34.86426,0
            138.7714,-34.8643,0
            138.77118,-34.86443,0
            138.77116,-34.86444,0
            138.77105,-34.86451,0
            138.771,-34.86454,0
            138.77092,-34.8646,0
            138.77074,-34.86471,0
            138.77061,-34.86478,0
            138.77049,-34.86483,0
            138.77036,-34.86486,0
            138.77021,-34.86488,0
            138.77006,-34.86489,0
            138.76994,-34.86488,0
            138.76983,-34.86486,0
            138.76971,-34.86482,0
            138.7696,-34.86478,0
            138.76946,-34.86471,0
            138.76925,-34.86458,0
            138.76905,-34.86447,0
            138.76889,-34.86438,0
            138.76874,-34.86433,0
            138.76871,-34.86431,0
            138.76856,-34.86427,0
            138.76843,-34.86425,0
            138.76829,-34.86424,0
            138.76808,-34.86424,0
            138.76794,-34.86426,0
            138.76782,-34.86428,0
            138.76775,-34.86429,0
            138.76768,-34.86432,0
            138.76741,-34.86441,0
            138.76722,-34.86448,0
            138.76713,-34.86451,0
            138.76703,-34.86454,0
            138.76687,-34.86456,0
            138.76679,-34.86457,0
            138.76669,-34.86456,0
            138.76657,-34.86453,0
            138.76648,-34.8645,0
            138.76638,-34.86445,0
            138.76634,-34.86444,0
            138.76624,-34.86437,0
            138.76621,-34.86434,0
            138.76614,-34.86427,0
            138.76605,-34.86412,0
            138.76602,-34.86404,0
            138.766,-34.86392,0
            138.766,-34.86363,0
            138.766,-34.8635,0
            138.76599,-34.86339,0
            138.76598,-34.8633,0
            138.76595,-34.86313,0
            138.76591,-34.86284,0
            138.76586,-34.86271,0
            138.76583,-34.86262,0
            138.76579,-34.86254,0
            138.76572,-34.86244,0
            138.76563,-34.86233,0
            138.7655,-34.86222,0
            138.76539,-34.86215,0
            138.76524,-34.86209,0
            138.76523,-34.86208,0
            138.76515,-34.86205,0
            138.76507,-34.86203,0
            138.76503,-34.86202,0
            138.76497,-34.86201,0
            138.76487,-34.862,0
            138.76471,-34.862,0
            138.7646,-34.86201,0
            138.76458,-34.86201,0
            138.76444,-34.86203,0
            138.76429,-34.86207,0
            138.76416,-34.86213,0
            138.76405,-34.86219,0
            138.76395,-34.86226,0
            138.76388,-34.86232,0
            138.76382,-34.86238,0
            138.76377,-34.86245,0
            138.76373,-34.8625,0
            138.76371,-34.86252,0
            138.76367,-34.86258,0
            138.76364,-34.86266,0
            138.76361,-34.86275,0
            138.76357,-34.8629,0
            138.76352,-34.86314,0
            138.7635,-34.86323,0
            138.76347,-34.86332,0
            138.76343,-34.86342,0
            138.76341,-34.86347,0
            138.76337,-34.86353,0
            138.76334,-34.86359,0
            138.76326,-34.86367,0
            138.76322,-34.86373,0
            138.76315,-34.86379,0
            138.76308,-34.86384,0
            138.76303,-34.86387,0
            138.76297,-34.86391,0
            138.76286,-34.86396,0
            138.76277,-34.86398,0
            138.76273,-34.864,0
            138.76268,-34.86401,0
            138.76258,-34.86403,0
            138.76252,-34.86404,0
            138.76245,-34.86405,0
            138.76231,-34.86405,0
            138.76216,-34.86405,0
            138.76189,-34.86402,0
            138.76187,-34.86401,0
            138.76169,-34.864,0
            138.76165,-34.864,0
            138.76153,-34.86399,0
            138.76139,-34.864,0
            138.76121,-34.86403,0
            138.7608,-34.86413,0
            138.76059,-34.86418,0
            138.75954,-34.86444,0
          </coordinates>
        </LineString>
      </Placemark>
      <Placemark>
        <name>Gorge Rd, Cudlee Creek SA 5232, Australia</name>
        <styleUrl>#icon-1899-DB4436-nodesc</styleUrl>
        <Point>
          <coordinates>
            138.7968716,-34.8491969,0
          </coordinates>
        </Point>
      </Placemark>
      <Placemark>
        <name>1185 Gorge Rd, Paracombe SA 5132, Australia</name>
        <styleUrl>#icon-1899-DB4436-nodesc</styleUrl>
        <Point>
          <coordinates>
            138.7595406,-34.8644408,0
          </coordinates>
        </Point>
      </Placemark>
    </Folder>
    <Folder>
      <name>SS11 Athlestone</name>
      <Placemark>
        <name>SS11 Athlestone</name>
        <styleUrl>#line-1267FF-5000-nodesc</styleUrl>
        <LineString>
          <tessellate>1</tessellate>
          <coordinates>
            138.75264,-34.86918,0
            138.75257,-34.86911,0
            138.75249,-34.86902,0
            138.75234,-34.86883,0
            138.75222,-34.86862,0
            138.752,-34.86813,0
            138.75187,-34.8679,0
            138.75187,-34.86789,0
            138.75186,-34.86787,0
            138.75179,-34.86773,0
            138.75179,-34.86772,0
            138.75168,-34.86749,0
            138.75136,-34.86696,0
            138.75134,-34.8669,0
            138.75133,-34.86685,0
            138.75133,-34.86678,0
            138.75135,-34.86672,0
            138.75138,-34.86665,0
            138.75142,-34.86656,0
            138.75144,-34.86653,0
            138.75145,-34.8665,0
            138.75147,-34.86644,0
            138.75147,-34.86637,0
            138.75146,-34.86632,0
            138.75142,-34.86625,0
            138.75139,-34.8662,0
            138.75132,-34.86614,0
            138.75117,-34.86607,0
            138.75064,-34.86589,0
            138.75045,-34.86583,0
            138.75044,-34.86582,0
            138.75004,-34.86567,0
            138.7498,-34.86559,0
            138.74925,-34.86536,0
            138.74906,-34.86528,0
            138.74905,-34.86528,0
            138.74886,-34.86519,0
            138.74885,-34.86519,0
            138.74842,-34.86497,0
            138.74828,-34.86489,0
            138.74813,-34.86479,0
            138.74757,-34.86434,0
            138.74743,-34.86424,0
            138.74729,-34.86414,0
            138.74702,-34.86397,0
            138.74688,-34.86388,0
            138.74673,-34.86379,0
            138.74662,-34.86374,0
            138.74635,-34.86361,0
            138.74555,-34.86344,0
            138.74523,-34.86335,0
            138.74498,-34.86318,0
            138.7448,-34.86298,0
            138.74473,-34.86277,0
            138.74477,-34.86258,0
            138.74486,-34.86242,0
            138.74502,-34.8623,0
            138.74523,-34.8622,0
            138.74541,-34.86215,0
            138.74563,-34.86211,0
            138.74596,-34.86208,0
            138.74612,-34.86208,0
            138.74613,-34.86208,0
            138.74631,-34.86208,0
            138.74647,-34.86209,0
            138.74666,-34.86207,0
            138.74686,-34.86205,0
            138.74701,-34.86202,0
            138.74709,-34.862,0
            138.7473,-34.86195,0
            138.74748,-34.8619,0
            138.74757,-34.86187,0
            138.74767,-34.86182,0
            138.74777,-34.86176,0
            138.74779,-34.86174,0
            138.74784,-34.8617,0
            138.74788,-34.86163,0
            138.7479,-34.86157,0
            138.74791,-34.86155,0
            138.74791,-34.86153,0
            138.7479,-34.86151,0
            138.74788,-34.86147,0
            138.74787,-34.86143,0
            138.74784,-34.86139,0
            138.74775,-34.86133,0
            138.74761,-34.86127,0
            138.74753,-34.86124,0
            138.74738,-34.86119,0
            138.74732,-34.86118,0
            138.74719,-34.86114,0
            138.74703,-34.8611,0
            138.74688,-34.86109,0
            138.74666,-34.86109,0
            138.74648,-34.8611,0
            138.74644,-34.8611,0
            138.74638,-34.86111,0
            138.74502,-34.86155,0
            138.7439,-34.86196,0
            138.74304,-34.86223,0
            138.7425,-34.86229,0
            138.74216,-34.86223,0
            138.74194,-34.86213,0
            138.74164,-34.86192,0
            138.74145,-34.86157,0
            138.74137,-34.86142,0
            138.74133,-34.86114,0
            138.74124,-34.8606,0
            138.74108,-34.86009,0
            138.74093,-34.85969,0
            138.74082,-34.85957,0
            138.74078,-34.85954,0
            138.74074,-34.85952,0
            138.74068,-34.85951,0
            138.74064,-34.85951,0
            138.74054,-34.85953,0
            138.74047,-34.85956,0
            138.74036,-34.85964,0
            138.74026,-34.85975,0
            138.7402,-34.85986,0
            138.7401,-34.86012,0
            138.73998,-34.86036,0
            138.73985,-34.86056,0
            138.73975,-34.86066,0
            138.73963,-34.86075,0
            138.73955,-34.86081,0
            138.73937,-34.8609,0
            138.73923,-34.86093,0
            138.73909,-34.86095,0
            138.73886,-34.86092,0
            138.73855,-34.86083,0
            138.73822,-34.86065,0
            138.73796,-34.86045,0
            138.7377,-34.8601,0
            138.73767,-34.86007,0
            138.73758,-34.85998,0
            138.73753,-34.85993,0
            138.7373,-34.85969,0
            138.73692,-34.85949,0
            138.73653,-34.85938,0
            138.73559,-34.85929,0
            138.73487,-34.85935,0
            138.7345,-34.8594,0
            138.73443,-34.85941,0
            138.73414,-34.85944,0
            138.73379,-34.85946,0
            138.73368,-34.85946,0
            138.73351,-34.85946,0
            138.73325,-34.85944,0
            138.73319,-34.85943,0
            138.73313,-34.85942,0
            138.73308,-34.85941,0
            138.73303,-34.8594,0
            138.73294,-34.85936,0
            138.73288,-34.85934,0
            138.73285,-34.85932,0
            138.73272,-34.85927,0
            138.73258,-34.85919,0
            138.7325,-34.85914,0
            138.73242,-34.85907,0
            138.73232,-34.85896,0
            138.73227,-34.85889,0
            138.73224,-34.85883,0
            138.73222,-34.85878,0
            138.7322,-34.85871,0
            138.7322,-34.85868,0
            138.73219,-34.85864,0
            138.73218,-34.8585,0
            138.73216,-34.85832,0
            138.73208,-34.85806,0
            138.73189,-34.85773,0
            138.73162,-34.85719,0
            138.73137,-34.85662,0
            138.73128,-34.8565,0
            138.73125,-34.85647,0
            138.73121,-34.85646,0
            138.73117,-34.85644,0
            138.73115,-34.85644,0
            138.73108,-34.85644,0
            138.73107,-34.85644,0
            138.73102,-34.85645,0
            138.731,-34.85646,0
            138.73099,-34.85647,0
            138.73097,-34.85648,0
            138.73096,-34.85649,0
            138.73095,-34.85653,0
            138.73095,-34.85657,0
            138.73097,-34.85681,0
            138.73081,-34.85788,0
            138.7304,-34.85838,0
            138.73013,-34.85873,0
            138.72992,-34.85898,0
            138.72984,-34.85906,0
            138.7298,-34.85909,0
            138.72964,-34.8592,0
            138.7296,-34.85922,0
            138.72959,-34.85923,0
            138.7294,-34.85932,0
            138.72939,-34.85933,0
            138.72921,-34.85942,0
            138.72909,-34.85948,0
            138.72878,-34.85961,0
            138.72834,-34.85977,0
            138.72823,-34.85981,0
            138.72802,-34.85988,0
            138.72757,-34.86004,0
            138.72741,-34.86007,0
            138.72733,-34.86009,0
            138.7272,-34.86011,0
            138.72714,-34.86012,0
            138.72698,-34.86014,0
            138.72696,-34.86015,0
            138.72681,-34.86016,0
            138.72676,-34.86017,0
            138.72658,-34.86017,0
            138.72654,-34.86017,0
            138.72632,-34.86016,0
            138.72605,-34.86014,0
            138.72604,-34.86014,0
            138.72583,-34.86011,0
            138.72561,-34.86008,0
            138.72539,-34.86005,0
            138.72518,-34.86003,0
            138.72507,-34.86001,0
            138.72496,-34.86,0
            138.72494,-34.85999,0
            138.72483,-34.85997,0
            138.72475,-34.85995,0
            138.72455,-34.85989,0
            138.72454,-34.85989,0
            138.72382,-34.8597,0
            138.72371,-34.85967,0
            138.7235,-34.85962,0
            138.72329,-34.85957,0
            138.72308,-34.85952,0
            138.72292,-34.85948,0
            138.72287,-34.85948,0
            138.72286,-34.85947,0
            138.72279,-34.85947,0
            138.72275,-34.85946,0
            138.7227,-34.85946,0
            138.72267,-34.85947,0
          </coordinates>
        </LineString>
      </Placemark>
      <Placemark>
        <name>1105 Gorge Rd, Castambul SA 5076, Australia</name>
        <styleUrl>#icon-1899-DB4436-nodesc</styleUrl>
        <Point>
          <coordinates>
            138.7526407,-34.8691817,0
          </coordinates>
        </Point>
      </Placemark>
      <Placemark>
        <name>498 Gorge Rd</name>
        <styleUrl>#icon-1899-DB4436-nodesc</styleUrl>
        <Point>
          <coordinates>
            138.7226656,-34.859466,0
          </coordinates>
        </Point>
      </Placemark>
    </Folder>
    <Folder>
      <name>SS12 Anstey Hill</name>
      <Placemark>
        <name>SS12 Anstey Hill</name>
        <styleUrl>#line-1267FF-5000-nodesc</styleUrl>
        <LineString>
          <tessellate>1</tessellate>
          <coordinates>
            138.74695,-34.84071,0
            138.7468,-34.84074,0
            138.74665,-34.84078,0
            138.74649,-34.84082,0
            138.74639,-34.84086,0
            138.74627,-34.84091,0
            138.74626,-34.84092,0
            138.74593,-34.8411,0
            138.74583,-34.84114,0
            138.7458,-34.84116,0
            138.74577,-34.84117,0
            138.74573,-34.84117,0
            138.74569,-34.84117,0
            138.74561,-34.84116,0
            138.74552,-34.84115,0
            138.74544,-34.84115,0
            138.74537,-34.84116,0
            138.74532,-34.84118,0
            138.74518,-34.84124,0
            138.74507,-34.84129,0
            138.74495,-34.84131,0
            138.7448,-34.84132,0
            138.74462,-34.8413,0
            138.74447,-34.84127,0
            138.7444,-34.84125,0
            138.74421,-34.84118,0
            138.74408,-34.84115,0
            138.74394,-34.84113,0
            138.74383,-34.84113,0
            138.7436,-34.84113,0
            138.74347,-34.84114,0
            138.74335,-34.84114,0
            138.74294,-34.84119,0
            138.74292,-34.8412,0
            138.74287,-34.8412,0
            138.74275,-34.84122,0
            138.7427,-34.84123,0
            138.74265,-34.84123,0
            138.74261,-34.84123,0
            138.74258,-34.84123,0
            138.74254,-34.84122,0
            138.74251,-34.84121,0
            138.74247,-34.8412,0
            138.74239,-34.84117,0
            138.74235,-34.84115,0
            138.74231,-34.84114,0
            138.74226,-34.84112,0
            138.74221,-34.8411,0
            138.74216,-34.84109,0
            138.7421,-34.84108,0
            138.74193,-34.84108,0
            138.74178,-34.84108,0
            138.74153,-34.84106,0
            138.74149,-34.84105,0
            138.74143,-34.84105,0
            138.74137,-34.84103,0
            138.74134,-34.84103,0
            138.74127,-34.84101,0
            138.74125,-34.841,0
            138.74122,-34.84099,0
            138.74117,-34.84096,0
            138.74112,-34.84094,0
            138.74106,-34.84089,0
            138.74085,-34.84071,0
            138.74069,-34.84057,0
            138.74062,-34.84051,0
            138.74053,-34.84044,0
            138.74037,-34.84033,0
            138.74023,-34.84025,0
            138.74007,-34.84018,0
            138.73988,-34.84014,0
            138.73982,-34.84013,0
            138.73978,-34.84012,0
            138.73969,-34.84011,0
            138.73964,-34.8401,0
            138.73959,-34.8401,0
            138.73954,-34.84009,0
            138.73949,-34.84009,0
            138.73945,-34.84009,0
            138.7394,-34.84009,0
            138.73936,-34.84009,0
            138.73931,-34.84009,0
            138.73894,-34.84013,0
            138.73876,-34.84016,0
            138.73862,-34.84017,0
            138.73854,-34.84018,0
            138.73852,-34.84019,0
            138.73845,-34.8402,0
            138.73836,-34.84022,0
            138.73826,-34.84026,0
            138.73814,-34.84032,0
            138.73799,-34.8404,0
            138.73748,-34.84067,0
            138.73673,-34.84106,0
            138.73632,-34.84126,0
            138.73628,-34.84128,0
            138.73598,-34.84142,0
            138.7356,-34.84164,0
            138.73555,-34.84167,0
            138.73538,-34.84177,0
            138.73518,-34.84187,0
            138.73502,-34.84195,0
            138.73477,-34.84206,0
            138.73464,-34.84215,0
            138.73432,-34.84243,0
            138.73416,-34.84256,0
            138.73405,-34.84263,0
            138.73395,-34.84267,0
            138.73374,-34.84275,0
            138.73353,-34.84281,0
            138.73344,-34.84283,0
            138.73334,-34.84285,0
            138.73323,-34.84285,0
            138.73308,-34.84283,0
            138.73297,-34.8428,0
            138.73287,-34.84278,0
            138.7328,-34.84278,0
            138.73272,-34.84278,0
            138.73266,-34.84279,0
            138.73257,-34.84282,0
            138.73248,-34.84286,0
            138.73215,-34.84307,0
            138.73208,-34.84311,0
            138.73199,-34.84314,0
            138.73187,-34.84316,0
            138.73173,-34.84318,0
            138.73164,-34.84318,0
            138.73154,-34.84317,0
            138.73146,-34.84314,0
            138.7314,-34.8431,0
            138.73138,-34.84308,0
            138.73135,-34.84306,0
            138.73133,-34.84303,0
            138.73131,-34.843,0
            138.73129,-34.84294,0
            138.73128,-34.84286,0
            138.73128,-34.84273,0
            138.7313,-34.84251,0
            138.73131,-34.8422,0
            138.73129,-34.84207,0
            138.73128,-34.84197,0
            138.73118,-34.8415,0
            138.73118,-34.84146,0
            138.73118,-34.8414,0
            138.7312,-34.84136,0
            138.73122,-34.84131,0
            138.73129,-34.84115,0
            138.73138,-34.84099,0
            138.73144,-34.8409,0
            138.73148,-34.84081,0
            138.7315,-34.84075,0
            138.73151,-34.84073,0
            138.73152,-34.8407,0
            138.73153,-34.84067,0
            138.73154,-34.84064,0
            138.73155,-34.84058,0
            138.73155,-34.84055,0
            138.73155,-34.84053,0
            138.73155,-34.84052,0
            138.73155,-34.8405,0
            138.73155,-34.84049,0
            138.73154,-34.84046,0
            138.73152,-34.8404,0
            138.73146,-34.8403,0
            138.73142,-34.84025,0
            138.7314,-34.84022,0
            138.73133,-34.84015,0
            138.73125,-34.84004,0
            138.73112,-34.83985,0
            138.73102,-34.83967,0
            138.73095,-34.83952,0
            138.73088,-34.83941,0
            138.73072,-34.83921,0
            138.73071,-34.83918,0
            138.7307,-34.83916,0
            138.73068,-34.8391,0
            138.73068,-34.83907,0
            138.73067,-34.83905,0
            138.73067,-34.83901,0
            138.73067,-34.83896,0
            138.73072,-34.83858,0
            138.73072,-34.83853,0
            138.73072,-34.83846,0
            138.73071,-34.83837,0
            138.73071,-34.83834,0
            138.73069,-34.8383,0
            138.73069,-34.83828,0
            138.73067,-34.83826,0
            138.73066,-34.83824,0
            138.73064,-34.83821,0
            138.73061,-34.83816,0
            138.73056,-34.83812,0
            138.73045,-34.83805,0
            138.73039,-34.83802,0
            138.73033,-34.83798,0
            138.73027,-34.83792,0
            138.73023,-34.83787,0
            138.73015,-34.83777,0
            138.73005,-34.83762,0
            138.72997,-34.83752,0
            138.72984,-34.83741,0
            138.7298,-34.83739,0
            138.72976,-34.83737,0
            138.72972,-34.83735,0
            138.7297,-34.83734,0
            138.72967,-34.83734,0
            138.72965,-34.83733,0
            138.72948,-34.83729,0
            138.72931,-34.83726,0
            138.72924,-34.83725,0
            138.72901,-34.83721,0
            138.72885,-34.83719,0
            138.72862,-34.83718,0
            138.72844,-34.83717,0
            138.7282,-34.83717,0
            138.72808,-34.83716,0
            138.72801,-34.83715,0
            138.72789,-34.83713,0
            138.72771,-34.8371,0
            138.72757,-34.83708,0
            138.72749,-34.83708,0
            138.72744,-34.83708,0
            138.72741,-34.83708,0
            138.72738,-34.83709,0
            138.72719,-34.83714,0
            138.72704,-34.83718,0
            138.72684,-34.83726,0
            138.72672,-34.83732,0
            138.72665,-34.83735,0
            138.72659,-34.83739,0
            138.7265,-34.83746,0
            138.72569,-34.83817,0
            138.72555,-34.8383,0
            138.72547,-34.8384,0
            138.72543,-34.83845,0
            138.72539,-34.83853,0
            138.72536,-34.8386,0
            138.72533,-34.83867,0
            138.72529,-34.83878,0
            138.72527,-34.8389,0
            138.72525,-34.83905,0
            138.72523,-34.83918,0
            138.72523,-34.83924,0
            138.72521,-34.83967,0
            138.72521,-34.83982,0
            138.7252,-34.8399,0
            138.72519,-34.83994,0
            138.72518,-34.83997,0
            138.72517,-34.83999,0
            138.72516,-34.84001,0
            138.72514,-34.84003,0
            138.72513,-34.84005,0
            138.72512,-34.84006,0
            138.72506,-34.8401,0
          </coordinates>
        </LineString>
      </Placemark>
      <Placemark>
        <name>Lower North East Rd, Houghton SA 5131, Australia</name>
        <styleUrl>#icon-1899-DB4436-nodesc</styleUrl>
        <Point>
          <coordinates>
            138.7469469,-34.8407091,0
          </coordinates>
        </Point>
      </Placemark>
      <Placemark>
        <name>Anstey Hill Recreation Park - Gate 9, 1265 Lower North East Rd, Vista SA 5091, Australia</name>
        <styleUrl>#icon-1899-DB4436-nodesc</styleUrl>
        <Point>
          <coordinates>
            138.7250632,-34.8401046,0
          </coordinates>
        </Point>
      </Placemark>
    </Folder>
  </Document>
</kml>
