{
  "type": "FeatureCollection",
  "features": [
    {
      "type": "Feature",
      "id": "crafers",
      "properties": {
        "featureId": "crafers",
        "stageCodes": [
          "SS4"
        ],
        "name": "Crafers",
        "day": 2,
        "sourceMid": "SYNTHETIC-2025",
        "termini": [
          {
            "name": "Start of Crafers",
            "coordinate": [
              138.7,
              -35.01
            ]
          },
          {
            "name": "Finish of Crafers",
            "coordinate": [
              138.7441,
              -34.9904
            ]
          }
        ]
      },
      "geometry": {
        "type": "LineString",
        "coordinates": [
          [
            138.7,
            -35.01,
            410
          ],
          [
            138.7009,
            -35.0096,
            415.7
          ],
          [
            138.7018,
            -35.0092,
            421.3
          ],
          [
            138.7027,
            -35.0088,
            426.9
          ],
          [
            138.7036,
            -35.0084,
            432.4
          ],
          [
            138.7045,
            -35.008,
            437.8
          ],
          [
            138.7054,
            -35.0076,
            443.1
          ],
          [
            138.7063,
            -35.0072,
            448.3
          ],
          [
            138.7072,
            -35.0068,
            453.4
          ],
          [
            138.7081,
            -35.0064,
            458.2
          ],
          [
            138.709,
            -35.006,
            462.9
          ],
          [
            138.7099,
            -35.0056,
            467.4
          ],
          [
            138.7108,
            -35.0052,
            471.6
          ],
          [
            138.7117,
            -35.0048,
            475.6
          ],
          [
            138.7126,
            -35.0044,
            479.3
          ],
          [
            138.7135,
            -35.004,
            482.8
          ],
          [
            138.7144,
            -35.0036,
            486
          ],
          [
            138.7153,
            -35.0032,
            488.9
          ],
          [
            138.7162,
            -35.0028,
            491.4
          ],
          [
            138.7171,
            -35.0024,
            493.7
          ],
          [
            138.718,
            -35.002,
            495.6
          ],
          [
            138.7189,
            -35.0016,
            497.2
          ],
          [
            138.7198,
            -35.0012,
            498.4
          ],
          [
            138.7207,
            -35.0008,
            499.3
          ],
          [
            138.7216,
            -35.0004,
            499.8
          ],
          [
            138.7225,
            -35,
            500
          ],
          [
            138.7234,
            -34.9996,
            499.8
          ],
          [
            138.7243,
            -34.9992,
            499.3
          ],
          [
            138.7252,
            -34.9988,
            498.4
          ],
          [
            138.7261,
            -34.9984,
            497.2
          ],
          [
            138.727,
            -34.998,
            495.6
          ],
          [
            138.7279,
            -34.9976,
            493.7
          ],
          [
            138.7288,
            -34.9972,
            491.4
          ],
          [
            138.7297,
            -34.9968,
            488.9
          ],
          [
            138.7306,
            -34.9964,
            486
          ],
          [
            138.7315,
            -34.996,
            482.8
          ],
          [
            138.7324,
            -34.9956,
            479.3
          ],
          [
            138.7333,
            -34.9952,
            475.6
          ],
          [
            138.7342,
            -34.9948,
            471.6
          ],
          [
            138.7351,
            -34.9944,
            467.4
          ],
          [
            138.736,
            -34.994,
            462.9
          ],
          [
            138.7369,
            -34.9936,
            458.2
          ],
          [
            138.7378,
            -34.9932,
            453.4
          ],
          [
            138.7387,
            -34.9928,
            448.3
          ],
          [
            138.7396,
            -34.9924,
            443.1
          ],
          [
            138.7405,
            -34.992,
            437.8
          ],
          [
            138.7414,
            -34.9916,
            432.4
          ],
          [
            138.7423,
            -34.9912,
            426.9
          ],
          [
            138.7432,
            -34.9908,
            421.3
          ],
          [
            138.7441,
            -34.9904,
            415.7
          ]
        ]
      }
    },
    {
      "type": "Feature",
      "id": "bridgewater",
      "properties": {
        "featureId": "bridgewater",
        "stageCodes": [
          "SS5"
        ],
        "name": "Bridgewater",
        "day": 2,
        "sourceMid": "SYNTHETIC-2025",
        "termini": [
          {
            "name": "Start of Bridgewater",
            "coordinate": [
              138.76,
              -35.02
            ]
          },
          {
            "name": "Finish of Bridgewater",
            "coordinate": [
              138.7951,
              -35.0044
            ]
          }
        ]
      },
      "geometry": {
        "type": "LineString",
        "coordinates": [
          [
            138.76,
            -35.02,
            300
          ],
          [
            138.7609,
            -35.0196,
            304.7
          ],
          [
            138.7618,
            -35.0192,
            309.4
          ],
          [
            138.7627,
            -35.0188,
            314
          ],
          [
            138.7636,
            -35.0184,
            318.5
          ],
          [
            138.7645,
            -35.018,
            323
          ],
          [
            138.7654,
            -35.0176,
            327.2
          ],
          [
            138.7663,
            -35.0172,
            331.3
          ],
          [
            138.7672,
            -35.0168,
            335.3
          ],
          [
            138.7681,
            -35.0164,
            339
          ],
          [
            138.769,
            -35.016,
            342.4
          ],
          [
            138.7699,
            -35.0156,
            345.6
          ],
          [
            138.7708,
            -35.0152,
            348.5
          ],
          [
            138.7717,
            -35.0148,
            351.2
          ],
          [
            138.7726,
            -35.0144,
            353.5
          ],
          [
            138.7735,
            -35.014,
            355.4
          ],
          [
            138.7744,
            -35.0136,
            357.1
          ],
          [
            138.7753,
            -35.0132,
            358.3
          ],
          [
            138.7762,
            -35.0128,
            359.3
          ],
          [
            138.7771,
            -35.0124,
            359.8
          ],
          [
            138.778,
            -35.012,
            360
          ],
          [
            138.7789,
            -35.0116,
            359.8
          ],
          [
            138.7798,
            -35.0112,
            359.3
          ],
          [
            138.7807,
            -35.0108,
            358.3
          ],
          [
            138.7816,
            -35.0104,
            357.1
          ],
          [
            138.7825,
            -35.01,
            355.4
          ],
          [
            138.7834,
            -35.0096,
            353.5
          ],
          [
            138.7843,
            -35.0092,
            351.2
          ],
          [
            138.7852,
            -35.0088,
            348.5
          ],
          [
            138.7861,
            -35.0084,
            345.6
          ],
          [
            138.787,
            -35.008,
            342.4
          ],
          [
            138.7879,
            -35.0076,
            339
          ],
          [
            138.7888,
            -35.0072,
            335.3
          ],
          [
            138.7897,
            -35.0068,
            331.3
          ],
          [
            138.7906,
            -35.0064,
            327.2
          ],
          [
            138.7915,
            -35.006,
            323
          ],
          [
            138.7924,
            -35.0056,
            318.5
          ],
          [
            138.7933,
            -35.0052,
            314
          ],
          [
            138.7942,
            -35.0048,
            309.4
          ],
          [
            138.7951,
            -35.0044,
            304.7
          ]
        ]
      }
    }
  ]
}
