{
  "type": "FeatureCollection",
  "features": [
    {
      "type": "Feature",
      "id": "greenhill-loop",
      "properties": {
        "featureId": "greenhill-loop",
        "stageCodes": [
          "SS1",
          "SS3"
        ],
        "name": "Greenhill Loop 1 & 2",
        "day": 1,
        "sourceMid": "SYNTHETIC-2025",
        "termini": [
          {
            "name": "Start of Greenhill Loop 1 & 2",
            "coordinate": [
              138.68,
              -34.95
            ]
          },
          {
            "name": "Finish of Greenhill Loop 1 & 2",
            "coordinate": [
              138.7331,
              -34.9264
            ]
          }
        ]
      },
      "geometry": {
        "type": "LineString",
        "coordinates": [
          [
            138.68,
            -34.95,
            220
          ],
          [
            138.6809,
            -34.9496,
            229.4
          ],
          [
            138.6818,
            -34.9492,
            238.8
          ],
          [
            138.6827,
            -34.9488,
            248.2
          ],
          [
            138.6836,
            -34.9484,
            257.4
          ],
          [
            138.6845,
            -34.948,
            266.6
          ],
          [
            138.6854,
            -34.9476,
            275.6
          ],
          [
            138.6863,
            -34.9472,
            284.5
          ],
          [
            138.6872,
            -34.9468,
            293.2
          ],
          [
            138.6881,
            -34.9464,
            301.7
          ],
          [
            138.689,
            -34.946,
            310
          ],
          [
            138.6899,
            -34.9456,
            318
          ],
          [
            138.6908,
            -34.9452,
            325.8
          ],
          [
            138.6917,
            -34.9448,
            333.3
          ],
          [
            138.6926,
            -34.9444,
            340.4
          ],
          [
            138.6935,
            -34.944,
            347.3
          ],
          [
            138.6944,
            -34.9436,
            353.8
          ],
          [
            138.6953,
            -34.9432,
            359.9
          ],
          [
            138.6962,
            -34.9428,
            365.6
          ],
          [
            138.6971,
            -34.9424,
            371
          ],
          [
            138.698,
            -34.942,
            375.9
          ],
          [
            138.6989,
            -34.9416,
            380.4
          ],
          [
            138.6998,
            -34.9412,
            384.4
          ],
          [
            138.7007,
            -34.9408,
            388
          ],
          [
            138.7016,
            -34.9404,
            391.2
          ],
          [
            138.7025,
            -34.94,
            393.9
          ],
          [
            138.7034,
            -34.9396,
            396.1
          ],
          [
            138.7043,
            -34.9392,
            397.8
          ],
          [
            138.7052,
            -34.9388,
            399
          ],
          [
            138.7061,
            -34.9384,
            399.8
          ],
          [
            138.707,
            -34.938,
            400
          ],
          [
            138.7079,
            -34.9376,
            399.8
          ],
          [
            138.7088,
            -34.9372,
            399
          ],
          [
            138.7097,
            -34.9368,
            397.8
          ],
          [
            138.7106,
            -34.9364,
            396.1
          ],
          [
            138.7115,
            -34.936,
            393.9
          ],
          [
            138.7124,
            -34.9356,
            391.2
          ],
          [
            138.7133,
            -34.9352,
            388
          ],
          [
            138.7142,
            -34.9348,
            384.4
          ],
          [
            138.7151,
            -34.9344,
            380.4
          ],
          [
            138.716,
            -34.934,
            375.9
          ],
          [
            138.7169,
            -34.9336,
            371
          ],
          [
            138.7178,
            -34.9332,
            365.6
          ],
          [
            138.7187,
            -34.9328,
            359.9
          ],
          [
            138.7196,
            -34.9324,
            353.8
          ],
          [
            138.7205,
            -34.932,
            347.3
          ],
          [
            138.7214,
            -34.9316,
            340.4
          ],
          [
            138.7223,
            -34.9312,
            333.3
          ],
          [
            138.7232,
            -34.9308,
            325.8
          ],
          [
            138.7241,
            -34.9304,
            318
          ],
          [
            138.725,
            -34.93,
            310
          ],
          [
            138.7259,
            -34.9296,
            301.7
          ],
          [
            138.7268,
            -34.9292,
            293.2
          ],
          [
            138.7277,
            -34.9288,
            284.5
          ],
          [
            138.7286,
            -34.9284,
            275.6
          ],
          [
            138.7295,
            -34.928,
            266.6
          ],
          [
            138.7304,
            -34.9276,
            257.4
          ],
          [
            138.7313,
            -34.9272,
            248.2
          ],
          [
            138.7322,
            -34.9268,
            238.8
          ],
          [
            138.7331,
            -34.9264,
            229.4
          ]
        ]
      }
    },
    {
      "type": "Feature",
      "id": "piccadilly",
      "properties": {
        "featureId": "piccadilly",
        "stageCodes": [
          "SS2"
        ],
        "name": "Piccadilly",
        "day": 1,
        "sourceMid": "SYNTHETIC-2025",
        "termini": [
          {
            "name": "Start of Piccadilly",
            "coordinate": [
              138.72,
              -34.99
            ]
          },
          {
            "name": "Finish of Piccadilly",
            "coordinate": [
              138.7596,
              -34.9724
            ]
          }
        ]
      },
      "geometry": {
        "type": "LineString",
        "coordinates": [
          [
            138.72,
            -34.99,
            340
          ],
          [
            138.7209,
            -34.9896,
            348.4
          ],
          [
            138.7218,
            -34.9892,
            356.7
          ],
          [
            138.7227,
            -34.9888,
            364.9
          ],
          [
            138.7236,
            -34.9884,
            373.1
          ],
          [
            138.7245,
            -34.988,
            381
          ],
          [
            138.7254,
            -34.9876,
            388.8
          ],
          [
            138.7263,
            -34.9872,
            396.3
          ],
          [
            138.7272,
            -34.9868,
            403.6
          ],
          [
            138.7281,
            -34.9864,
            410.5
          ],
          [
            138.729,
            -34.986,
            417.1
          ],
          [
            138.7299,
            -34.9856,
            423.4
          ],
          [
            138.7308,
            -34.9852,
            429.2
          ],
          [
            138.7317,
            -34.9848,
            434.6
          ],
          [
            138.7326,
            -34.9844,
            439.5
          ],
          [
            138.7335,
            -34.984,
            443.9
          ],
          [
            138.7344,
            -34.9836,
            447.9
          ],
          [
            138.7353,
            -34.9832,
            451.3
          ],
          [
            138.7362,
            -34.9828,
            454.1
          ],
          [
            138.7371,
            -34.9824,
            456.4
          ],
          [
            138.738,
            -34.982,
            458.2
          ],
          [
            138.7389,
            -34.9816,
            459.3
          ],
          [
            138.7398,
            -34.9812,
            459.9
          ],
          [
            138.7407,
            -34.9808,
            459.9
          ],
          [
            138.7416,
            -34.9804,
            459.3
          ],
          [
            138.7425,
            -34.98,
            458.2
          ],
          [
            138.7434,
            -34.9796,
            456.4
          ],
          [
            138.7443,
            -34.9792,
            454.1
          ],
          [
            138.7452,
            -34.9788,
            451.3
          ],
          [
            138.7461,
            -34.9784,
            447.9
          ],
          [
            138.747,
            -34.978,
            443.9
          ],
          [
            138.7479,
            -34.9776,
            439.5
          ],
          [
            138.7488,
            -34.9772,
            434.6
          ],
          [
            138.7497,
            -34.9768,
            429.2
          ],
          [
            138.7506,
            -34.9764,
            423.4
          ],
          [
            138.7515,
            -34.976,
            417.1
          ],
          [
            138.7524,
            -34.9756,
            410.5
          ],
          [
            138.7533,
            -34.9752,
            403.6
          ],
          [
            138.7542,
            -34.9748,
            396.3
          ],
          [
            138.7551,
            -34.9744,
            388.8
          ],
          [
            138.756,
            -34.974,
            381
          ],
          [
            138.7569,
            -34.9736,
            373.1
          ],
          [
            138.7578,
            -34.9732,
            364.9
          ],
          [
            138.7587,
            -34.9728,
            356.7
          ],
          [
            138.7596,
            -34.9724,
            348.4
          ]
        ]
      }
    }
  ]
}
